LANDSAT 9               
1 49260U 21088A   24287.21412293  .00001996  00000+0  45323-3 0  9991
2 49260  98.2208 355.3323 0001445  78.9002 281.2358 14.57094364161871
